start=new Date('2021-12-23T00:00:00.000Z').valueOf();
sats=[{"EPOCH":"2021-12-22T03:14:55.125600","DECAY_DATE":null,"SITE":"AFETR","MEAN_ELEMENT_THEORY":"SGP4","INCLINATION":"53.0542","LAUNCH_DATE":"2020-10-18","TIME_SYSTEM":"UTC","CENTER_NAME":"EARTH","SEMIMAJOR_AXIS":"6925.408","OBJECT_NAME":"STARLINK-1797","MEAN_MOTION_DOT":"-0.00006763","APOAPSIS":"548.487","TLE_LINE2":"2 46698  53.0542 308.4579 0001753  54.9127 305.2026 15.06380572 65235","ECCENTRICITY":"0.00017530","OBJECT_TYPE":"PAYLOAD","REV_AT_EPOCH":"6523","MEAN_ANOMALY":"305.2026","COUNTRY_CODE":"US","CLASSIFICATION_TYPE":"U","FILE":"3247523","RA_OF_ASC_NODE":"308.4579","PERIOD":"95.593","NORAD_CAT_ID":"46698","MEAN_MOTION":"15.06380572","REF_FRAME":"TEME","GP_ID":"192218589","BSTAR":"-0.00043580000000","MEAN_MOTION_DDOT":"0.0000000000000","TLE_LINE1":"1 46698U 20073AE  21356.13536025 -.00006763  00000-0 -43580-3 0  9994","OBJECT_ID":"2020-073AE","ELEMENT_SET_NO":"999","RCS_SIZE":"LARGE","PERIAPSIS":"546.059","EPHEMERIS_TYPE":"0","ARG_OF_PERICENTER":"54.9127"},{"MEAN_MOTION":"15.06390223","PERIOD":"95.593","NORAD_CAT_ID":"46699","RA_OF_ASC_NODE":"308.4491","FILE":"3247523","CLASSIFICATION_TYPE":"U","COUNTRY_CODE":"US","MEAN_ANOMALY":"293.2550","ARG_OF_PERICENTER":"66.8624","EPHEMERIS_TYPE":"0","PERIAPSIS":"546.026","RCS_SIZE":"LARGE","OBJECT_ID":"2020-073AF","ELEMENT_SET_NO":"999","TLE_LINE1":"1 46699U 20073AF  21356.13905046 -.00001565  00000-0 -86211-4 0  9992","MEAN_MOTION_DDOT":"0.0000000000000","BSTAR":"-0.00008621100000","GP_ID":"192219340","REF_FRAME":"TEME","CENTER_NAME":"EARTH","LAUNCH_DATE":"2020-10-18","TIME_SYSTEM":"UTC","INCLINATION":"53.0564","MEAN_ELEMENT_THEORY":"SGP4","SITE":"AFETR","DECAY_DATE":null,"EPOCH":"2021-12-22T03:20:13.959744","REV_AT_EPOCH":"6523","ECCENTRICITY":"0.00017580","OBJECT_TYPE":"PAYLOAD","TLE_LINE2":"2 46699  53.0564 308.4491 0001758  66.8624 293.2550 15.06390223 65234","APOAPSIS":"548.461","MEAN_MOTION_DOT":"-0.00001565","OBJECT_NAME":"STARLINK-1799","SEMIMAJOR_AXIS":"6925.379"},{"OBJECT_TYPE":"PAYLOAD","ECCENTRICITY":"0.00018780","REV_AT_EPOCH":"6506","MEAN_MOTION_DOT":"-0.00002783","APOAPSIS":"548.563","TLE_LINE2":"2 46700  53.0538 322.2256 0001878  53.9988 306.1175 15.06384132 65064","OBJECT_NAME":"STARLINK-1800","SEMIMAJOR_AXIS":"6925.397","TIME_SYSTEM":"UTC","LAUNCH_DATE":"2020-10-18","CENTER_NAME":"EARTH","INCLINATION":"53.0538","MEAN_ELEMENT_THEORY":"SGP4","EPOCH":"2021-12-22T09:48:22.358304","DECAY_DATE":null,"SITE":"AFETR","RCS_SIZE":"LARGE","PERIAPSIS":"545.962","EPHEMERIS_TYPE":"0","ARG_OF_PERICENTER":"53.9988","OBJECT_ID":"2020-073AG","ELEMENT_SET_NO":"999","GP_ID":"192218088","BSTAR":"-0.00016804000000","MEAN_MOTION_DDOT":"0.0000000000000","TLE_LINE1":"1 46700U 20073AG  21356.40859211 -.00002783  00000-0 -16804-3 0  9990","REF_FRAME":"TEME","PERIOD":"95.593","NORAD_CAT_ID":"46700","MEAN_MOTION":"15.06384132","FILE":"3247523","RA_OF_ASC_NODE":"322.2256","COUNTRY_CODE":"US","CLASSIFICATION_TYPE":"U","MEAN_ANOMALY":"306.1175"},{"ELEMENT_SET_NO":"999","OBJECT_ID":"2020-073AH","RCS_SIZE":"LARGE","ARG_OF_PERICENTER":"60.4592","EPHEMERIS_TYPE":"0","PERIAPSIS":"545.784","REF_FRAME":"TEME","BSTAR":"-0.00011141000000","GP_ID":"192217837","TLE_LINE1":"1 46701U 20073AH  21356.57400117 -.00001940  00000-0 -11141-3 0  9999","MEAN_MOTION_DDOT":"0.0000000000000","FILE":"3247523","RA_OF_ASC_NODE":"306.4815","NORAD_CAT_ID":"46701","PERIOD":"95.593","MEAN_MOTION":"15.06391305","MEAN_ANOMALY":"299.6606","COUNTRY_CODE":"US","CLASSIFICATION_TYPE":"U","MEAN_MOTION_DOT":"-0.00001940","TLE_LINE2":"2 46701  53.0576 306.4815 0002103  60.4592 299.6606 15.06391305 65300","APOAPSIS":"548.697","OBJECT_TYPE":"PAYLOAD","ECCENTRICITY":"0.00021030","REV_AT_EPOCH":"6530","SEMIMAJOR_AXIS":"6925.375","OBJECT_NAME":"STARLINK-1801","INCLINATION":"53.0576","TIME_SYSTEM":"UTC","LAUNCH_DATE":"2020-10-18","CENTER_NAME":"EARTH","DECAY_DATE":null,"EPOCH":"2021-12-22T13:46:33.701088","SITE":"AFETR","MEAN_ELEMENT_THEORY":"SGP4"},{"INCLINATION":"53.0540","LAUNCH_DATE":"2020-10-18","TIME_SYSTEM":"UTC","CENTER_NAME":"EARTH","EPOCH":"2021-12-22T17:16:12.623520","DECAY_DATE":null,"SITE":"AFETR","MEAN_ELEMENT_THEORY":"SGP4","MEAN_MOTION_DOT":"-0.00001750","APOAPSIS":"548.693","TLE_LINE2":"2 46702  53.0540 285.8464 0002074  51.3025 308.8149 15.06386011 66088","OBJECT_TYPE":"PAYLOAD","ECCENTRICITY":"0.00020740","REV_AT_EPOCH":"6608","SEMIMAJOR_AXIS":"6925.391","OBJECT_NAME":"STARLINK-1802","FILE":"3247655","RA_OF_ASC_NODE":"285.8464","PERIOD":"95.593","NORAD_CAT_ID":"46702","MEAN_MOTION":"15.06386011","MEAN_ANOMALY":"308.8149","COUNTRY_CODE":"US","CLASSIFICATION_TYPE":"U","OBJECT_ID":"2020-073AJ","ELEMENT_SET_NO":"999","RCS_SIZE":"LARGE","PERIAPSIS":"545.820","ARG_OF_PERICENTER":"51.3025","EPHEMERIS_TYPE":"0","REF_FRAME":"TEME","GP_ID":"192224397","BSTAR":"-0.00009861900000","MEAN_MOTION_DDOT":"0.0000000000000","TLE_LINE1":"1 46702U 20073AJ  21356.71959055 -.00001750  00000-0 -98619-4 0  9991"},{"REF_FRAME":"TEME","MEAN_MOTION_DDOT":"0.0000000000000","TLE_LINE1":"1 46703U 20073AK  21356.28648827 -.00002172  00000-0 -12696-3 0  9995","GP_ID":"192218840","BSTAR":"-0.00012696000000","OBJECT_ID":"2020-073AK","ELEMENT_SET_NO":"999","PERIAPSIS":"546.062","EPHEMERIS_TYPE":"0","ARG_OF_PERICENTER":"51.5014","RCS_SIZE":"LARGE","MEAN_ANOMALY":"308.6128","CLASSIFICATION_TYPE":"U","COUNTRY_CODE":"US","RA_OF_ASC_NODE":"307.7811","FILE":"3247523","MEAN_MOTION":"15.06389562","PERIOD":"95.593","NORAD_CAT_ID":"46703","SEMIMAJOR_AXIS":"6925.381","OBJECT_NAME":"STARLINK-1803","APOAPSIS":"548.429","TLE_LINE2":"2 46703  53.0538 307.7811 0001709  51.5014 308.6128 15.06389562 65257","MEAN_MOTION_DOT":"-0.00002172","REV_AT_EPOCH":"6525","OBJECT_TYPE":"PAYLOAD","ECCENTRICITY":"0.00017090","SITE":"AFETR","EPOCH":"2021-12-22T06:52:32.586528","DECAY_DATE":null,"MEAN_ELEMENT_THEORY":"SGP4","INCLINATION":"53.0538","CENTER_NAME":"EARTH","TIME_SYSTEM":"UTC","LAUNCH_DATE":"2020-10-18"},{"RCS_SIZE":"LARGE","EPHEMERIS_TYPE":"0","ARG_OF_PERICENTER":"38.7715","PERIAPSIS":"545.341","OBJECT_ID":"2020-073AL","ELEMENT_SET_NO":"999","BSTAR":"-0.00014082000000","GP_ID":"192217588","TLE_LINE1":"1 46704U 20073AL  21356.13352704 -.00002378  00000-0 -14082-3 0  9995","MEAN_MOTION_DDOT":"0.0000000000000","REF_FRAME":"TEME","NORAD_CAT_ID":"46704","PERIOD":"95.593","MEAN_MOTION":"15.06385128","FILE":"3247523","RA_OF_ASC_NODE":"288.4616","COUNTRY_CODE":"US","CLASSIFICATION_TYPE":"U","MEAN_ANOMALY":"321.3472","OBJECT_TYPE":"PAYLOAD","ECCENTRICITY":"0.00027690","REV_AT_EPOCH":"6551","MEAN_MOTION_DOT":"-0.00002378","TLE_LINE2":"2 46704  53.0575 288.4616 0002769  38.7715 321.3472 15.06385128 65516","APOAPSIS":"549.177","OBJECT_NAME":"STARLINK-1804","SEMIMAJOR_AXIS":"6925.394","TIME_SYSTEM":"UTC","LAUNCH_DATE":"2020-10-18","CENTER_NAME":"EARTH","INCLINATION":"53.0575","MEAN_ELEMENT_THEORY":"SGP4","DECAY_DATE":null,"EPOCH":"2021-12-22T03:12:16.736256","SITE":"AFETR"},{"ELEMENT_SET_NO":"999","OBJECT_ID":"2020-073AM","RCS_SIZE":"LARGE","PERIAPSIS":"545.795","ARG_OF_PERICENTER":"47.8273","EPHEMERIS_TYPE":"0","REF_FRAME":"TEME","GP_ID":"192223886","BSTAR":"-0.00005197700000","MEAN_MOTION_DDOT":"0.0000000000000","TLE_LINE1":"1 46705U 20073AM  21356.74400958 -.00001056  00000-0 -51977-4 0  9995","FILE":"3247655","RA_OF_ASC_NODE":"320.7170","NORAD_CAT_ID":"46705","PERIOD":"95.593","MEAN_MOTION":"15.06389932","MEAN_ANOMALY":"312.2893","COUNTRY_CODE":"US","CLASSIFICATION_TYPE":"U","MEAN_MOTION_DOT":"-0.00001056","APOAPSIS":"548.694","TLE_LINE2":"2 46705  53.0552 320.7170 0002093  47.8273 312.2893 15.06389932 65598","ECCENTRICITY":"0.00020930","OBJECT_TYPE":"PAYLOAD","REV_AT_EPOCH":"6559","SEMIMAJOR_AXIS":"6925.379","OBJECT_NAME":"STARLINK-1805","INCLINATION":"53.0552","TIME_SYSTEM":"UTC","LAUNCH_DATE":"2020-10-18","CENTER_NAME":"EARTH","EPOCH":"2021-12-22T17:51:22.427712","DECAY_DATE":null,"SITE":"AFETR","MEAN_ELEMENT_THEORY":"SGP4"},{"TIME_SYSTEM":"UTC","LAUNCH_DATE":"2020-10-18","CENTER_NAME":"EARTH","INCLINATION":"53.0546","MEAN_ELEMENT_THEORY":"SGP4","EPOCH":"2021-12-22T09:15:51.588864","DECAY_DATE":null,"SITE":"AFETR","ECCENTRICITY":"0.00016830","OBJECT_TYPE":"PAYLOAD","REV_AT_EPOCH":"6527","MEAN_MOTION_DOT":"-0.00001220","APOAPSIS":"548.429","TLE_LINE2":"2 46706  53.0546 307.3226 0001683  63.4146 296.7016 15.06383874 65279","OBJECT_NAME":"STARLINK-1807","SEMIMAJOR_AXIS":"6925.398","PERIOD":"95.593","NORAD_CAT_ID":"46706","MEAN_MOTION":"15.06383874","FILE":"3247523","RA_OF_ASC_NODE":"307.3226","COUNTRY_CODE":"US","CLASSIFICATION_TYPE":"U","MEAN_ANOMALY":"296.7016","RCS_SIZE":"LARGE","PERIAPSIS":"546.097","EPHEMERIS_TYPE":"0","ARG_OF_PERICENTER":"63.4146","OBJECT_ID":"2020-073AN","ELEMENT_SET_NO":"999","GP_ID":"192218590","BSTAR":"-0.00006300800000","MEAN_MOTION_DDOT":"0.0000000000000","TLE_LINE1":"1 46706U 20073AN  21356.38601376 -.00001220  00000-0 -63008-4 0  9994","REF_FRAME":"TEME"},{"REF_FRAME":"TEME","TLE_LINE1":"1 46707U 20073AP  21356.50948117 -.00002032  00000-0 -11751-3 0  9995","MEAN_MOTION_DDOT":"0.0000000000000","BSTAR":"-0.00011751000000","GP_ID":"192219341","ELEMENT_SET_NO":"999","OBJECT_ID":"2020-073AP","ARG_OF_PERICENTER":"37.4270","EPHEMERIS_TYPE":"0","PERIAPSIS":"544.989","RCS_SIZE":"LARGE","MEAN_ANOMALY":"322.6947","CLASSIFICATION_TYPE":"U","COUNTRY_CODE":"US","RA_OF_ASC_NODE":"286.7785","FILE":"3247523","MEAN_MOTION":"15.06384744","NORAD_CAT_ID":"46707","PERIOD":"95.593","SEMIMAJOR_AXIS":"6925.395","OBJECT_NAME":"STARLINK-1808","TLE_LINE2":"2 46707  53.0539 286.7785 0003279  37.4270 322.6947 15.06384744 65576","APOAPSIS":"549.531","MEAN_MOTION_DOT":"-0.00002032","REV_AT_EPOCH":"6557","ECCENTRICITY":"0.00032790","OBJECT_TYPE":"PAYLOAD","SITE":"AFETR","DECAY_DATE":null,"EPOCH":"2021-12-22T12:13:39.173088","MEAN_ELEMENT_THEORY":"SGP4","INCLINATION":"53.0539","CENTER_NAME":"EARTH","LAUNCH_DATE":"2020-10-18","TIME_SYSTEM":"UTC"}];
